ORBCOMM FM20 [+]        
1 25416U 98046D   23336.31687340  .00003825  00000+0  13886-2 0  9999
2 25416  44.9955 321.1226 0002454 289.0763  70.9818 14.34667254323365
ORBCOMM FM16 [-]        
1 25417U 98046E   23336.44189228  .00005495  00000+0  19423-2 0  9994
2 25417  44.9951 317.3676 0005286 329.1046  30.9490 14.35441905323304
ORBCOMM FM15 [-]        
1 25418U 98046F   23336.02156889  .00003418  00000+0  12333-2 0  9992
2 25418  44.9988 323.0526 0004813 326.4816  33.5726 14.35183786323258
ORBCOMM FM14 [-]        
1 25419U 98046G   23336.01153696  .00003358  00000+0  12095-2 0  9993
2 25419  44.9980 322.3987 0004138 313.3639 146.1876 14.35305346323202
ORBCOMM FM13 [+]        
1 25420U 98046H   23336.03520405  .00003143  00000+0  11486-2 0  9998
2 25420  44.9988 326.3464 0006053 316.9197  43.1176 14.34720426322287
ORBCOMM FM21 [-]        
1 25475U 98053A   23336.33103038  .00003911  00000+0  14169-2 0  9992
2 25475  45.0095  49.0927 0002203 249.7593 110.3018 14.34731303316345
ORBCOMM FM22 [-]        
1 25476U 98053B   23335.31574910  .00002981  00000+0  10835-2 0  9993
2 25476  45.0087  51.7385 0003853 255.0756 104.9665 14.35118548316188
ORBCOMM FM23 [-]        
1 25477U 98053C   23336.29174327  .00004300  00000+0  15531-2 0  9995
2 25477  45.0095  51.7266 0003216 254.1853 105.8639 14.34721530316481
