<?xml version="1.0" encoding="UTF-8"?>
<ndm xmlns:xsi="http://www.w3.org/2001/XMLSchema-instance" xsi:noNamespaceSchemaLocation="https://sanaregistry.org/r/ndmxml_unqualified/ndmxml-2.0.0-master-2.0.xsd">
<omm id="CCSDS_OMM_VERS" version="2.0">
<header><CREATION_DATE/><ORIGINATOR/></header><body><segment><metadata><OBJECT_NAME>ORBCOMM FM20 [+]</OBJECT_NAME><OBJECT_ID>1998-046D</OBJECT_ID><CENTER_NAME>EARTH</CENTER_NAME><REF_FRAME>TEME</REF_FRAME><TIME_SYSTEM>UTC</TIME_SYSTEM><MEAN_ELEMENT_THEORY>SGP4</MEAN_ELEMENT_THEORY></metadata><data><meanElements><EPOCH>2023-12-02T07:36:17.861760</EPOCH><MEAN_MOTION>14.34667254</MEAN_MOTION><ECCENTRICITY>.0002454</ECCENTRICITY><INCLINATION>44.9955</INCLINATION><RA_OF_ASC_NODE>321.1226</RA_OF_ASC_NODE><ARG_OF_PERICENTER>289.0763</ARG_OF_PERICENTER><MEAN_ANOMALY>70.9818</MEAN_ANOMALY></meanElements><tleParameters><EPHEMERIS_TYPE>0</EPHEMERIS_TYPE><CLASSIFICATION_TYPE>U</CLASSIFICATION_TYPE><NORAD_CAT_ID>25416</NORAD_CAT_ID><ELEMENT_SET_NO>999</ELEMENT_SET_NO><REV_AT_EPOCH>32336</REV_AT_EPOCH><BSTAR>.13886E-2</BSTAR><MEAN_MOTION_DOT>.3825E-4</MEAN_MOTION_DOT><MEAN_MOTION_DDOT>0</MEAN_MOTION_DDOT></tleParameters></data></segment></body></omm>
<omm id="CCSDS_OMM_VERS" version="2.0">
<header><CREATION_DATE/><ORIGINATOR/></header><body><segment><metadata><OBJECT_NAME>ORBCOMM FM16 [-]</OBJECT_NAME><OBJECT_ID>1998-046E</OBJECT_ID><CENTER_NAME>EARTH</CENTER_NAME><REF_FRAME>TEME</REF_FRAME><TIME_SYSTEM>UTC</TIME_SYSTEM><MEAN_ELEMENT_THEORY>SGP4</MEAN_ELEMENT_THEORY></metadata><data><meanElements><EPOCH>2023-12-02T10:36:19.492992</EPOCH><MEAN_MOTION>14.35441905</MEAN_MOTION><ECCENTRICITY>.0005286</ECCENTRICITY><INCLINATION>44.9951</INCLINATION><RA_OF_ASC_NODE>317.3676</RA_OF_ASC_NODE><ARG_OF_PERICENTER>329.1046</ARG_OF_PERICENTER><MEAN_ANOMALY>30.9490</MEAN_ANOMALY></meanElements><tleParameters><EPHEMERIS_TYPE>0</EPHEMERIS_TYPE><CLASSIFICATION_TYPE>U</CLASSIFICATION_TYPE><NORAD_CAT_ID>25417</NORAD_CAT_ID><ELEMENT_SET_NO>999</ELEMENT_SET_NO><REV_AT_EPOCH>32330</REV_AT_EPOCH><BSTAR>.19423E-2</BSTAR><MEAN_MOTION_DOT>.5495E-4</MEAN_MOTION_DOT><MEAN_MOTION_DDOT>0</MEAN_MOTION_DDOT></tleParameters></data></segment></body></omm>
<omm id="CCSDS_OMM_VERS" version="2.0">
<header><CREATION_DATE/><ORIGINATOR/></header><body><segment><metadata><OBJECT_NAME>ORBCOMM FM15 [-]</OBJECT_NAME><OBJECT_ID>1998-046F</OBJECT_ID><CENTER_NAME>EARTH</CENTER_NAME><REF_FRAME>TEME</REF_FRAME><TIME_SYSTEM>UTC</TIME_SYSTEM><MEAN_ELEMENT_THEORY>SGP4</MEAN_ELEMENT_THEORY></metadata><data><meanElements><EPOCH>2023-12-02T00:31:03.552096</EPOCH><MEAN_MOTION>14.35183786</MEAN_MOTION><ECCENTRICITY>.0004813</ECCENTRICITY><INCLINATION>44.9988</INCLINATION><RA_OF_ASC_NODE>323.0526</RA_OF_ASC_NODE><ARG_OF_PERICENTER>326.4816</ARG_OF_PERICENTER><MEAN_ANOMALY>33.5726</MEAN_ANOMALY></meanElements><tleParameters><EPHEMERIS_TYPE>0</EPHEMERIS_TYPE><CLASSIFICATION_TYPE>U</CLASSIFICATION_TYPE><NORAD_CAT_ID>25418</NORAD_CAT_ID><ELEMENT_SET_NO>999</ELEMENT_SET_NO><REV_AT_EPOCH>32325</REV_AT_EPOCH><BSTAR>.12333E-2</BSTAR><MEAN_MOTION_DOT>.3418E-4</MEAN_MOTION_DOT><MEAN_MOTION_DDOT>0</MEAN_MOTION_DDOT></tleParameters></data></segment></body></omm>
<omm id="CCSDS_OMM_VERS" version="2.0">
<header><CREATION_DATE/><ORIGINATOR/></header><body><segment><metadata><OBJECT_NAME>ORBCOMM FM14 [-]</OBJECT_NAME><OBJECT_ID>1998-046G</OBJECT_ID><CENTER_NAME>EARTH</CENTER_NAME><REF_FRAME>TEME</REF_FRAME><TIME_SYSTEM>UTC</TIME_SYSTEM><MEAN_ELEMENT_THEORY>SGP4</MEAN_ELEMENT_THEORY></metadata><data><meanElements><EPOCH>2023-12-02T00:16:36.793344</EPOCH><MEAN_MOTION>14.35305346</MEAN_MOTION><ECCENTRICITY>.0004138</ECCENTRICITY><INCLINATION>44.9980</INCLINATION><RA_OF_ASC_NODE>322.3987</RA_OF_ASC_NODE><ARG_OF_PERICENTER>313.3639</ARG_OF_PERICENTER><MEAN_ANOMALY>146.1876</MEAN_ANOMALY></meanElements><tleParameters><EPHEMERIS_TYPE>0</EPHEMERIS_TYPE><CLASSIFICATION_TYPE>U</CLASSIFICATION_TYPE><NORAD_CAT_ID>25419</NORAD_CAT_ID><ELEMENT_SET_NO>999</ELEMENT_SET_NO><REV_AT_EPOCH>32320</REV_AT_EPOCH><BSTAR>.12095E-2</BSTAR><MEAN_MOTION_DOT>.3358E-4</MEAN_MOTION_DOT><MEAN_MOTION_DDOT>0</MEAN_MOTION_DDOT></tleParameters></data></segment></body></omm>
<omm id="CCSDS_OMM_VERS" version="2.0">
<header><CREATION_DATE/><ORIGINATOR/></header><body><segment><metadata><OBJECT_NAME>ORBCOMM FM13 [+]</OBJECT_NAME><OBJECT_ID>1998-046H</OBJECT_ID><CENTER_NAME>EARTH</CENTER_NAME><REF_FRAME>TEME</REF_FRAME><TIME_SYSTEM>UTC</TIME_SYSTEM><MEAN_ELEMENT_THEORY>SGP4</MEAN_ELEMENT_THEORY></metadata><data><meanElements><EPOCH>2023-12-02T00:50:41.629920</EPOCH><MEAN_MOTION>14.34720426</MEAN_MOTION><ECCENTRICITY>.0006053</ECCENTRICITY><INCLINATION>44.9988</INCLINATION><RA_OF_ASC_NODE>326.3464</RA_OF_ASC_NODE><ARG_OF_PERICENTER>316.9197</ARG_OF_PERICENTER><MEAN_ANOMALY>43.1176</MEAN_ANOMALY></meanElements><tleParameters><EPHEMERIS_TYPE>0</EPHEMERIS_TYPE><CLASSIFICATION_TYPE>U</CLASSIFICATION_TYPE><NORAD_CAT_ID>25420</NORAD_CAT_ID><ELEMENT_SET_NO>999</ELEMENT_SET_NO><REV_AT_EPOCH>32228</REV_AT_EPOCH><BSTAR>.11486E-2</BSTAR><MEAN_MOTION_DOT>.3143E-4</MEAN_MOTION_DOT><MEAN_MOTION_DDOT>0</MEAN_MOTION_DDOT></tleParameters></data></segment></body></omm>
<omm id="CCSDS_OMM_VERS" version="2.0">
<header><CREATION_DATE/><ORIGINATOR/></header><body><segment><metadata><OBJECT_NAME>ORBCOMM FM21 [-]</OBJECT_NAME><OBJECT_ID>1998-053A</OBJECT_ID><CENTER_NAME>EARTH</CENTER_NAME><REF_FRAME>TEME</REF_FRAME><TIME_SYSTEM>UTC</TIME_SYSTEM><MEAN_ELEMENT_THEORY>SGP4</MEAN_ELEMENT_THEORY></metadata><data><meanElements><EPOCH>2023-12-02T07:56:41.024832</EPOCH><MEAN_MOTION>14.34731303</MEAN_MOTION><ECCENTRICITY>.0002203</ECCENTRICITY><INCLINATION>45.0095</INCLINATION><RA_OF_ASC_NODE>49.0927</RA_OF_ASC_NODE><ARG_OF_PERICENTER>249.7593</ARG_OF_PERICENTER><MEAN_ANOMALY>110.3018</MEAN_ANOMALY></meanElements><tleParameters><EPHEMERIS_TYPE>0</EPHEMERIS_TYPE><CLASSIFICATION_TYPE>U</CLASSIFICATION_TYPE><NORAD_CAT_ID>25475</NORAD_CAT_ID><ELEMENT_SET_NO>999</ELEMENT_SET_NO><REV_AT_EPOCH>31634</REV_AT_EPOCH><BSTAR>.14169E-2</BSTAR><MEAN_MOTION_DOT>.3911E-4</MEAN_MOTION_DOT><MEAN_MOTION_DDOT>0</MEAN_MOTION_DDOT></tleParameters></data></segment></body></omm>
<omm id="CCSDS_OMM_VERS" version="2.0">
<header><CREATION_DATE/><ORIGINATOR/></header><body><segment><metadata><OBJECT_NAME>ORBCOMM FM22 [-]</OBJECT_NAME><OBJECT_ID>1998-053B</OBJECT_ID><CENTER_NAME>EARTH</CENTER_NAME><REF_FRAME>TEME</REF_FRAME><TIME_SYSTEM>UTC</TIME_SYSTEM><MEAN_ELEMENT_THEORY>SGP4</MEAN_ELEMENT_THEORY></metadata><data><meanElements><EPOCH>2023-12-01T07:34:40.722240</EPOCH><MEAN_MOTION>14.35118548</MEAN_MOTION><ECCENTRICITY>.0003853</ECCENTRICITY><INCLINATION>45.0087</INCLINATION><RA_OF_ASC_NODE>51.7385</RA_OF_ASC_NODE><ARG_OF_PERICENTER>255.0756</ARG_OF_PERICENTER><MEAN_ANOMALY>104.9665</MEAN_ANOMALY></meanElements><tleParameters><EPHEMERIS_TYPE>0</EPHEMERIS_TYPE><CLASSIFICATION_TYPE>U</CLASSIFICATION_TYPE><NORAD_CAT_ID>25476</NORAD_CAT_ID><ELEMENT_SET_NO>999</ELEMENT_SET_NO><REV_AT_EPOCH>31618</REV_AT_EPOCH><BSTAR>.10835E-2</BSTAR><MEAN_MOTION_DOT>.2981E-4</MEAN_MOTION_DOT><MEAN_MOTION_DDOT>0</MEAN_MOTION_DDOT></tleParameters></data></segment></body></omm>
<omm id="CCSDS_OMM_VERS" version="2.0">
<header><CREATION_DATE/><ORIGINATOR/></header><body><segment><metadata><OBJECT_NAME>ORBCOMM FM23 [-]</OBJECT_NAME><OBJECT_ID>1998-053C</OBJECT_ID><CENTER_NAME>EARTH</CENTER_NAME><REF_FRAME>TEME</REF_FRAME><TIME_SYSTEM>UTC</TIME_SYSTEM><MEAN_ELEMENT_THEORY>SGP4</MEAN_ELEMENT_THEORY></metadata><data><meanElements><EPOCH>2023-12-02T07:00:06.618528</EPOCH><MEAN_MOTION>14.34721530</MEAN_MOTION><ECCENTRICITY>.0003216</ECCENTRICITY><INCLINATION>45.0095</INCLINATION><RA_OF_ASC_NODE>51.7266</RA_OF_ASC_NODE><ARG_OF_PERICENTER>254.1853</ARG_OF_PERICENTER><MEAN_ANOMALY>105.8639</MEAN_ANOMALY></meanElements><tleParameters><EPHEMERIS_TYPE>0</EPHEMERIS_TYPE><CLASSIFICATION_TYPE>U</CLASSIFICATION_TYPE><NORAD_CAT_ID>25477</NORAD_CAT_ID><ELEMENT_SET_NO>999</ELEMENT_SET_NO><REV_AT_EPOCH>31648</REV_AT_EPOCH><BSTAR>.15531E-2</BSTAR><MEAN_MOTION_DOT>.43E-4</MEAN_MOTION_DOT><MEAN_MOTION_DDOT>0</MEAN_MOTION_DDOT></tleParameters></data></segment></body></omm>

</ndm>
